IRIDIUM 921             
1 24873U 97034E   24221.65076788  .00047116  00000+0  10554-2 0  9990
2 24873  86.3758 262.0601 0005312  78.0911 282.0940 15.43240648483543
IRIDIUM 26              
1 24903U 97043A   24221.57454795  .00000931  00000+0  31106-3 0  9994
2 24903  86.3922 241.7677 0002475  87.9463 272.2017 14.36469894412326
IRIDIUM 22              
1 24907U 97043E   24221.60107502  .00000863  00000+0  29440-3 0  9995
2 24907  86.3924 245.0356 0002272  91.5735 268.5722 14.35355181411929
DUMMY MASS 1            
1 24925U 97048A   24221.90973871  .00000974  00000+0  10749-3 0  9998
2 24925  86.3323 279.6269 0007486 155.0856 205.0731 14.86325397458974
DUMMY MASS 2            
1 24926U 97048B   24222.22429357  .00001025  00000+0  11385-3 0  9995
2 24926  86.3324 281.0346 0007853 165.8696 194.2750 14.86083533458803
IRIDIUM 29              
1 24944U 97051A   24221.65719102  .00000858  00000+0  28978-3 0  9994
2 24944  86.3926 274.9043 0002210  99.1620 260.9827 14.35809214408632
IRIDIUM 33              
1 24946U 97051C   24222.15206871  .00000632  00000+0  21756-3 0  9993
2 24946  86.3839 273.9448 0008762  31.4704 328.7014 14.34442986408016
IRIDIUM 28              
1 24948U 97051E   24221.90484271  .00000889  00000+0  29491-3 0  9997
2 24948  86.3929 272.4922 0002509  83.8972 276.2511 14.36765369408991
